{"type": "FeatureCollection", "features": [ {"type": "Feature", "properties": {"norad_id": 38552, "name": "METEOSAT-10 (MSG-3)", "group": "weather", "lat": 4.22063056522202, "lon": 155.44886901316738, "alt_km": 35787.85834688704, "timestamp": "2025-12-11T05:00:25.954532+00:00", "meta": {"OBJECT_NAME": "METEOSAT-10 (MSG-3)", "OBJECT_ID": "2012-035B", "EPOCH": "2025-12-10T20:23:29.214816", "MEAN_MOTION": 1.00274412, "ECCENTRICITY": 8.284e-05, "INCLINATION": 4.2248, "RA_OF_ASC_NODE": 61.7284, "ARG_OF_PERICENTER": 245.7095, "MEAN_ANOMALY": 78.4106, "EPHEMERIS_TYPE": 0, "CLASSIFICATION_TYPE": "U", "NORAD_CAT_ID": 38552, "ELEMENT_SET_NO": 999, "REV_AT_EPOCH": 4896, "BSTAR": 0, "MEAN_MOTION_DOT": -1e-08, "MEAN_MOTION_DDOT": 0}, "tle": {"line1": "1 38552U 12035B   25344.84964369 -.00000001  00000+0  00000+0 0  9991", "line2": "2 38552   4.2248  61.7284 0000828 245.7095  78.4106  1.00274412 48967"}}, "geometry": {"type": "Point", "coordinates": [155.44886901316738, 4.22063056522202]}}, {"type": "Feature", "properties": {"norad_id": 38771, "name": "METOP-B", "group": "weather", "lat": 2.3861037160701852, "lon": -144.4420095280662, "alt_km": 821.4374053661495, "timestamp": "2025-12-11T05:00:25.954543+00:00", "meta": {"OBJECT_NAME": "METOP-B", "OBJECT_ID": "2012-049A", "EPOCH": "2025-12-10T21:25:02.642016", "MEAN_MOTION": 14.21407222, "ECCENTRICITY": 0.0002832, "INCLINATION": 98.6802, "RA_OF_ASC_NODE": 34.8824, "ARG_OF_PERICENTER": 148.0562, "MEAN_ANOMALY": 212.0788, "EPHEMERIS_TYPE": 0, "CLASSIFICATION_TYPE": "U", "NORAD_CAT_ID": 38771, "ELEMENT_SET_NO": 999, "REV_AT_EPOCH": 68651, "BSTAR": 0.00011265428, "MEAN_MOTION_DOT": 2.03e-06, "MEAN_MOTION_DDOT": 0}, "tle": {"line1": "1 38771U 12049A   25344.89239169  .00000203  00000+0  11265-3 0  9999", "line2": "2 38771  98.6802  34.8824 0002832 148.0562 212.0788 14.21407222686510"}}, "geometry": {"type": "Point", "coordinates": [-144.4420095280662, 2.3861037160701852]}}, {"type": "Feature", "properties": {"norad_id": 39216, "name": "INSAT-3D", "group": "weather", "lat": -0.5046589531772738, "lon": -75.17368188796635, "alt_km": 35781.14396255906, "timestamp": "2025-12-11T05:00:25.954556+00:00", "meta": {"OBJECT_NAME": "INSAT-3D", "OBJECT_ID": "2013-038B", "EPOCH": "2025-12-10T21:00:25.677216", "MEAN_MOTION": 1.00270729, "ECCENTRICITY": 0.00015668, "INCLINATION": 1.4404, "RA_OF_ASC_NODE": 85.0095, "ARG_OF_PERICENTER": 163.5597, "MEAN_ANOMALY": 275.9256, "EPHEMERIS_TYPE": 0, "CLASSIFICATION_TYPE": "U", "NORAD_CAT_ID": 39216, "ELEMENT_SET_NO": 999, "REV_AT_EPOCH": 4519, "BSTAR": 0, "MEAN_MOTION_DOT": -3.34e-06, "MEAN_MOTION_DDOT": 0}, "tle": {"line1": "1 39216U 13038B   25344.87529719 -.00000334  00000+0  00000+0 0  9991", "line2": "2 39216   1.4404  85.0095 0001566 163.5597 275.9256  1.00270729 45190"}}, "geometry": {"type": "Point", "coordinates": [-75.17368188796635, -0.5046589531772738]}}, {"type": "Feature", "properties": {"norad_id": 39260, "name": "FENGYUN 3C", "group": "weather", "lat": 79.7473855684057, "lon": -161.5070084199051, "alt_km": 835.1597897623442, "timestamp": "2025-12-11T05:00:25.954567+00:00", "meta": {"OBJECT_NAME": "FENGYUN 3C", "OBJECT_ID": "2013-052A", "EPOCH": "2025-12-10T21:46:13.942848", "MEAN_MOTION": 14.15695396, "ECCENTRICITY": 0.00141821, "INCLINATION": 98.4761, "RA_OF_ASC_NODE": 322.676, "ARG_OF_PERICENTER": 201.4761, "MEAN_ANOMALY": 158.5821, "EPHEMERIS_TYPE": 0, "CLASSIFICATION_TYPE": "U", "NORAD_CAT_ID": 39260, "ELEMENT_SET_NO": 999, "REV_AT_EPOCH": 63192, "BSTAR": 0.00012127617, "MEAN_MOTION_DOT": 1.97e-06, "MEAN_MOTION_DDOT": 0}, "tle": {"line1": "1 39260U 13052A   25344.90710582  .00000197  00000+0  12128-3 0  9994", "line2": "2 39260  98.4761 322.6760 0014182 201.4761 158.5821 14.15695396631920"}}, "geometry": {"type": "Point", "coordinates": [-161.5070084199051, 79.7473855684057]}}, {"type": "Feature", "properties": {"norad_id": 40069, "name": "METEOR-M 2", "group": "weather", "lat": 45.21140462898219, "lon": -45.80332881946608, "alt_km": 820.2359956949294, "timestamp": "2025-12-11T05:00:25.954578+00:00", "meta": {"OBJECT_NAME": "METEOR-M 2", "OBJECT_ID": "2014-037A", "EPOCH": "2025-12-10T22:02:03.100416", "MEAN_MOTION": 14.21385613, "ECCENTRICITY": 0.00049386, "INCLINATION": 98.4904, "RA_OF_ASC_NODE": 322.5721, "ARG_OF_PERICENTER": 215.7984, "MEAN_ANOMALY": 144.2864, "EPHEMERIS_TYPE": 0, "CLASSIFICATION_TYPE": "U", "NORAD_CAT_ID": 40069, "ELEMENT_SET_NO": 999, "REV_AT_EPOCH": 59257, "BSTAR": 0.0001711598, "MEAN_MOTION_DOT": 3.32e-06, "MEAN_MOTION_DDOT": 0}, "tle": {"line1": "1 40069U 14037A   25344.91809144  .00000332  00000+0  17116-3 0  9994", "line2": "2 40069  98.4904 322.5721 0004938 215.7984 144.2864 14.21385613592578"}}, "geometry": {"type": "Point", "coordinates": [-45.80332881946608, 45.21140462898219]}}, {"type": "Feature", "properties": {"norad_id": 40267, "name": "HIMAWARI-8", "group": "weather", "lat": 0.010512131341065826, "lon": -64.06816826732357, "alt_km": 35781.33284600513, "timestamp": "2025-12-11T05:00:25.954589+00:00", "meta": {"OBJECT_NAME": "HIMAWARI-8", "OBJECT_ID": "2014-060A", "EPOCH": "2025-12-10T21:03:32.879232", "MEAN_MOTION": 1.00270352, "ECCENTRICITY": 0.00012357, "INCLINATION": 0.0344, "RA_OF_ASC_NODE": 201.0454, "ARG_OF_PERICENTER": 100.319, "MEAN_ANOMALY": 235.0267, "EPHEMERIS_TYPE": 0, "CLASSIFICATION_TYPE": "U", "NORAD_CAT_ID": 40267, "ELEMENT_SET_NO": 999, "REV_AT_EPOCH": 4087, "BSTAR": 0, "MEAN_MOTION_DOT": -2.71e-06, "MEAN_MOTION_DDOT": 0}, "tle": {"line1": "1 40267U 14060A   25344.87746388 -.00000271  00000+0  00000+0 0  9998", "line2": "2 40267   0.0344 201.0454 0001235 100.3190 235.0267  1.00270352 40877"}}, "geometry": {"type": "Point", "coordinates": [-64.06816826732357, 0.010512131341065826]}}, {"type": "Feature", "properties": {"norad_id": 40367, "name": "FENGYUN 2G", "group": "weather", "lat": 0.006111193900697468, "lon": -105.15637947455271, "alt_km": 35775.35405624536, "timestamp": "2025-12-11T05:00:25.954601+00:00", "meta": {"OBJECT_NAME": "FENGYUN 2G", "OBJECT_ID": "2014-090A", "EPOCH": "2025-12-10T20:22:55.693344", "MEAN_MOTION": 1.00264635, "ECCENTRICITY": 0.00031271, "INCLINATION": 5.1637, "RA_OF_ASC_NODE": 75.1179, "ARG_OF_PERICENTER": 194.7733, "MEAN_ANOMALY": 215.2369, "EPHEMERIS_TYPE": 0, "CLASSIFICATION_TYPE": "U", "NORAD_CAT_ID": 40367, "ELEMENT_SET_NO": 999, "REV_AT_EPOCH": 4011, "BSTAR": 0, "MEAN_MOTION_DOT": -2.96e-06, "MEAN_MOTION_DDOT": 0}, "tle": {"line1": "1 40367U 14090A   25344.84925571 -.00000296  00000+0  00000+0 0  9999", "line2": "2 40367   5.1637  75.1179 0003127 194.7733 215.2369  1.00264635 40112"}}, "geometry": {"type": "Point", "coordinates": [-105.15637947455271, 0.006111193900697468]}}, {"type": "Feature", "properties": {"norad_id": 40732, "name": "METEOSAT-11 (MSG-4)", "group": "weather", "lat": 2.728800509652622, "lon": 164.59372476583135, "alt_km": 35783.669025677154, "timestamp": "2025-12-11T05:00:25.954613+00:00", "meta": {"OBJECT_NAME": "METEOSAT-11 (MSG-4)", "OBJECT_ID": "2015-034A", "EPOCH": "2025-12-10T20:26:06.463680", "MEAN_MOTION": 1.00266905, "ECCENTRICITY": 9.494e-05, "INCLINATION": 2.7306, "RA_OF_ASC_NODE": 72.0062, "ARG_OF_PERICENTER": 124.0282, "MEAN_ANOMALY": 199.6353, "EPHEMERIS_TYPE": 0, "CLASSIFICATION_TYPE": "U", "NORAD_CAT_ID": 40732, "ELEMENT_SET_NO": 999, "REV_AT_EPOCH": 532, "BSTAR": 0, "MEAN_MOTION_DOT": 6.6e-07, "MEAN_MOTION_DDOT": 0}, "tle": {"line1": "1 40732U 15034A   25344.85146370  .00000066  00000+0  00000+0 0  9991", "line2": "2 40732   2.7306  72.0062 0000949 124.0282 199.6353  1.00266905  5329"}}, "geometry": {"type": "Point", "coordinates": [164.59372476583135, 2.728800509652622]}}, {"type": "Feature", "properties": {"norad_id": 41105, "name": "ELEKTRO-L 2", "group": "weather", "lat": 5.772662284278649, "lon": 140.62690004830827, "alt_km": 35795.97798309764, "timestamp": "2025-12-11T05:00:25.954624+00:00", "meta": {"OBJECT_NAME": "ELEKTRO-L 2", "OBJECT_ID": "2015-074A", "EPOCH": "2025-12-09T01:31:10.511904", "MEAN_MOTION": 1.00271905, "ECCENTRICITY": 0.00038363, "INCLINATION": 6.2161, "RA_OF_ASC_NODE": 72.8685, "ARG_OF_PERICENTER": 198.9202, "MEAN_ANOMALY": 174.5582, "EPHEMERIS_TYPE": 0, "CLASSIFICATION_TYPE": "U", "NORAD_CAT_ID": 41105, "ELEMENT_SET_NO": 999, "REV_AT_EPOCH": 3660, "BSTAR": 0, "MEAN_MOTION_DOT": -1.16e-06, "MEAN_MOTION_DDOT": 0}, "tle": {"line1": "1 41105U 15074A   25343.06331611 -.00000116  00000+0  00000+0 0  9993", "line2": "2 41105   6.2161  72.8685 0003836 198.9202 174.5582  1.00271905 36608"}}, "geometry": {"type": "Point", "coordinates": [140.62690004830827, 5.772662284278649]}}, {"type": "Feature", "properties": {"norad_id": 41752, "name": "INSAT-3DR", "group": "weather", "lat": 0.033942012565662705, "lon": -130.8314275686749, "alt_km": 35740.41277442059, "timestamp": "2025-12-11T05:00:25.954636+00:00", "meta": {"OBJECT_NAME": "INSAT-3DR", "OBJECT_ID": "2016-054A", "EPOCH": "2025-12-10T20:38:04.926336", "MEAN_MOTION": 1.0027059, "ECCENTRICITY": 0.00144495, "INCLINATION": 0.0873, "RA_OF_ASC_NODE": 86.5694, "ARG_OF_PERICENTER": 183.9486, "MEAN_ANOMALY": 192.8337, "EPHEMERIS_TYPE": 0, "CLASSIFICATION_TYPE": "U", "NORAD_CAT_ID": 41752, "ELEMENT_SET_NO": 999, "REV_AT_EPOCH": 3393, "BSTAR": 0, "MEAN_MOTION_DOT": -7.2e-07, "MEAN_MOTION_DDOT": 0}, "tle": {"line1": "1 41752U 16054A   25344.85977924 -.00000072  00000+0  00000+0 0  9992", "line2": "2 41752   0.0873  86.5694 0014449 183.9486 192.8337  1.00270590 33933"}}, "geometry": {"type": "Point", "coordinates": [-130.8314275686749, 0.033942012565662705]}}]}